ORBCOMM FM05            
1 25117U 97084F   24268.53511546  .00004241  00000+0  12766-2 0  9990
2 25117  45.0138 201.7292 0003488 336.6520  23.4172 14.43751884402189
ORBCOMM FM06            
1 25118U 97084G   24268.58779323  .00004525  00000+0  13557-2 0  9999
2 25118  45.0131 201.5456 0002721 348.4023 181.4325 14.43871134403100
ORBCOMM FM07            
1 25119U 97084H   24268.27887025  .00003884  00000+0  11726-2 0  9998
2 25119  45.0127 203.6574 0004123 327.1434  32.9160 14.43755494403059
ORBCOMM FM03            
1 25158U 98007B   24268.52926627  .00001983  00000+0  76307-3 0  9992
2 25158 107.9730 310.3845 0046528 350.5176   9.5081 14.32937357385964
ORBCOMM FM04            
1 25159U 98007C   24268.84119502  .00001990  00000+0  76317-3 0  9993
2 25159 107.9712 314.0582 0042209 347.2600  12.7469 14.33208782386298
ORBCOMM FM17            
1 25413U 98046A   24268.79273006  .00002542  00000+0  95641-3 0  9998
2 25413  44.9943  69.0672 0001592 289.7226  70.3449 14.33775613365060
ORBCOMM FM18            
1 25414U 98046B   24268.72216178  .00002953  00000+0  10388-2 0  9999
2 25414  44.9945 353.4750 0002922 351.4758   8.6040 14.36768070366047
ORBCOMM FM19            
1 25415U 98046C   24268.56806929  .00003143  00000+0  11063-2 0  9994
2 25415  44.9954 355.8025 0002352 325.3135  49.7314 14.36598675366182
